COSMOS 2361 [-]         
1 25590U 98076A   22242.49580675  .00000052  00000+0  39888-4 0  9993
2 25590  82.9368 151.4420 0031810   5.2527 168.6589 13.73026008186390
COSMOS 2378 [-]         
1 26818U 01023A   22242.53274944  .00000021  00000+0  61358-5 0  9991
2 26818  82.9306 169.3127 0032176 310.7696  49.0675 13.73973940 64484
COSMOS 2389 [-]         
1 27436U 02026A   22242.16010280  .00000043  00000+0  28873-4 0  9990
2 27436  82.9494 115.4699 0046541 168.4554 308.9098 13.74980600 16493
COSMOS 2398 [-]         
1 27818U 03023A   22242.13294591  .00000047  00000+0  35111-4 0  9995
2 27818  82.9451  77.3137 0030570 205.4212 154.5436 13.72215698963499
COSMOS 2407 [+]         
1 28380U 04028A   22242.16198151  .00000029  00000+0  13885-4 0  9998
2 28380  82.9613  21.8484 0039212 169.3718 190.8277 13.76118453909293
COSMOS 2414 [+]         
1 28521U 05002A   22242.44550191  .00000040  00000+0  20293-4 0  9999
2 28521  82.9517  12.2877 0039735 324.9373  34.9174 13.87663412891813
COSMOS 2429 [-]         
1 32052U 07038A   22242.45346610  .00000060  00000+0  46616-4 0  9993
2 32052  82.9830 147.8042 0039101 145.7793 214.5895 13.74967270751070
COSMOS 2454 [-]         
1 35635U 09039A   22242.45749387  .00000024  00000+0  66974-5 0  9994
2 35635  82.9595 358.4911 0017899 267.4847  92.4270 13.89692514664979
COSMOS 2463 [+]         
1 36519U 10017A   22242.34751639  .00000043  00000+0  31107-4 0  9995
2 36519  82.9631 188.5313 0036832  20.0854  89.3418 13.71478504617822
